ONEWEB-0446             
1 51640U 22012U   24207.82990952  .00000519  00000+0  14492-2 0  9998
2 51640  87.8962 173.7812 0001968  87.5156 272.6197 13.10370647118784
ONEWEB-0448             
1 51641U 22012V   24208.14031668  .00000385  00000+0  10658-2 0  9996
2 51641  87.8960 173.7214 0002108  80.1472 279.9893 13.10370464120082
ONEWEB-0449             
1 51642U 22012W   24207.91621360  .00000093  00000+0  23050-3 0  9992
2 51642  87.8951 173.7584 0002345  85.3914 274.7481 13.10369311120078
ONEWEB-0451             
1 51643U 22012X   24207.35464814  .00000050  00000+0  94558-4 0  9995
2 51643  87.9186 143.6096 0002221  75.7373 284.4005 13.17648288122554
ONEWEB-0452             
1 51644U 22012Y   24207.35303681  .00000143  00000+0  33451-3 0  9997
2 51644  87.9193 143.6522 0002437  77.9671 282.1734 13.17648286122564
ONEWEB-0456             
1 51646U 22012AA  24207.92615702 -.00000468  00000+0 -13760-2 0  9994
2 51646  87.8954 173.7270 0001834  77.8897 282.2436 13.10369773118810
ONEWEB-0457             
1 51647U 22012AB  24208.13202324  .00000624  00000+0  17516-2 0  9996
2 51647  87.8961 173.7123 0002214  89.6802 270.4579 13.10372295120145
ONEWEB-0458             
1 51648U 22012AC  24207.92450965 -.00000378  00000+0 -11181-2 0  9999
2 51648  87.8960 173.7697 0002214  80.2796 279.8581 13.10370002118776
